BEIDOU-3 M1 (C19)       
1 43001U 17069A   26116.04827855 -.00000034  00000+0  00000+0 0  9992
2 43001  56.6495  64.8005 0012240 318.2876  41.5912  1.86230971 57632
BEIDOU-3 M2 (C20)       
1 43002U 17069B   26115.98689416 -.00000033  00000+0  00000+0 0  9993
2 43002  56.6485  64.8387 0010178 339.1978  20.7330  1.86230392 57627
BEIDOU-3 M7 (C27)       
1 43107U 18003A   26114.11756823 -.00000045  00000+0  00000+0 0  9992
2 43107  54.3768 304.1996 0005304  82.0952 277.9663  1.86227876 56345
BEIDOU-3 M8 (C28)       
1 43108U 18003B   26116.21099368 -.00000057  00000+0  00000+0 0  9993
2 43108  54.3678 304.1083 0002185 285.2373  74.7389  1.86230705 56399
BEIDOU-3 M4 (C22)       
1 43207U 18018A   26115.04264605 -.00000025  00000+0  00000+0 0  9992
2 43207  56.6074  64.8995 0007871   1.7700 358.2071  1.86230859 55755
BEIDOU-3 M3 (C21)       
1 43208U 18018B   26116.71995594 -.00000041  00000+0  00000+0 0  9994
2 43208  56.6084  64.8481 0010041 330.2132  29.6996  1.86230932 55789
BEIDOU-3 M9 (C29)       
1 43245U 18029A   26115.86361980 -.00000053  00000+0  00000+0 0  9991
2 43245  54.2419 301.7768 0000956  83.5736 276.4348  1.86228079 54926
BEIDOU-3 M10 (C30)      
1 43246U 18029B   26116.87215986 -.00000061  00000+0  00000+0 0  9997
2 43246  54.2390 301.7693 0004833  35.3233 324.7045  1.86228913 54925
BEIDOU-2 IGSO-7 (C16)   
1 43539U 18057A   26113.82760630 -.00000099  00000+0  00000+0 0  9997
2 43539  55.1848 163.5332 0103271 237.5854 221.4335  1.00267626 28581
BEIDOU-3 M5 (C23)       
1 43581U 18062A   26114.94852699 -.00000011  00000+0  00000+0 0  9995
2 43581  54.0831 184.1144 0004252 289.5888  70.4232  1.86228517 52643
BEIDOU-3 M6 (C24)       
1 43582U 18062B   26115.34868677 -.00000010  00000+0  00000+0 0  9993
2 43582  54.0829 184.0898 0004888  23.5128 336.5677  1.86227595 52659
BEIDOU-3 M12 (C26)      
1 43602U 18067A   26114.75012764 -.00000010  00000+0  00000+0 0  9993
2 43602  54.1783 182.8527 0007877  33.8697 326.2399  1.86227717 52128
BEIDOU-3 M11 (C25)      
1 43603U 18067B   26113.27415517 -.00000005  00000+0  00000+0 0  9997
2 43603  54.1754 182.8665 0004476  21.7330 338.3485  1.86227214 52124
BEIDOU-3 M13 (C32)      
1 43622U 18072A   26116.45110574 -.00000039  00000+0  00000+0 0  9999
2 43622  56.5817  64.3658 0008851 318.4220  41.4817  1.86230936 51699
BEIDOU-3 M14 (C33)      
1 43623U 18072B   26114.70569242 -.00000024  00000+0  00000+0 0  9990
2 43623  56.5822  64.4176 0006921 342.3518  17.5993  1.86231012 51655
BEIDOU-3 M16 (C35)      
1 43647U 18078A   26116.47269122 -.00000058  00000+0  00000+0 0  9999
2 43647  54.1380 301.7980 0008118  38.5073 321.5472  1.86232303 51197
BEIDOU-3 M15 (C34)      
1 43648U 18078B   26116.60200409 -.00000059  00000+0  00000+0 0  9999
2 43648  54.1328 301.7937 0005208  50.2977 309.7445  1.86232072 51217
